     2.100          NAVIGATION                              RINEX VERSION / TYPE
fic2rin                                 09/03/2015 00:47:31 PGM / RUN BY / DATE
                                                            END OF HEADER
18 15  9  2 11 59 44.0  .430628191680D-03  .306954461848D-11  .000000000000D+00
     .100000000000D+02 -.206250000000D+02  .489484674716D-08  .236793978547D+01
    -.113435089588D-05  .163637250662D-01  .117011368275D-04  .515363431168D+04
     .302384000000D+06  .135973095894D-06 -.266450594124D+01 -.217929482460D-06
     .925385558046D+00  .130625000000D+03 -.193971576582D+01 -.799497587998D-08
    -.198936857947D-09  .100000000000D+01  .186000000000D+04  .000000000000D+00
     .240000000000D+01  .000000000000D+00 -.111758708954D-07  .100000000000D+02
     .295206000000D+06  .400000000000D+01
 1 15  9  2 12  0  0.0 -.224448740482D-06  .682121026330D-12  .000000000000D+00
     .290000000000D+02 -.495000000000D+02  .480091426306D-08 -.131867535582D+01
    -.253506004810D-05  .464426772669D-02  .553205609322D-05  .515365415001D+04
     .302400000000D+06  .689178705215D-07  .260190760495D+01 -.894069671631D-07
     .962939522411D+00  .275593750000D+03  .458859990709D+00 -.828320217148D-08
    -.349657421778D-09  .100000000000D+01  .186000000000D+04  .000000000000D+00
     .240000000000D+01  .000000000000D+00  .512227416039D-08  .290000000000D+02
     .295206000000D+06  .400000000000D+01
 2 15  9  2 12  0  0.0  .587058719248D-03  .181898940355D-11  .000000000000D+00
     .430000000000D+02 -.351250000000D+02  .551594404692D-08 -.769098751479D+00
    -.173784792423D-05  .147608476691D-01  .496581196785D-05  .515361252975D+04
     .302400000000D+06  .838190317154D-07  .256221916850D+01  .324100255966D-06
     .941573631658D+00  .274750000000D+03 -.223580471186D+01 -.885144012658D-08
    -.307869966877D-09  .100000000000D+01  .186000000000D+04  .000000000000D+00
     .240000000000D+01  .000000000000D+00 -.204890966415D-07  .430000000000D+02
     .295206000000D+06  .400000000000D+01
 3 15  9  2 12  0  0.0  .196979381144D-04  .159161572810D-11  .000000000000D+00
     .700000000000D+02 -.381250000000D+01  .416053044565D-08  .651013878118D+00
    -.126659870148D-06  .642975443043D-03  .129267573357D-04  .515362006378D+04
     .302400000000D+06 -.167638063431D-07 -.264089321459D+01  .689178705215D-07
     .959603425506D+00  .129156250000D+03 -.258778041718D+01 -.782818321811D-08
    -.255010622216D-09  .100000000000D+01  .186000000000D+04  .000000000000D+00
     .240000000000D+01  .000000000000D+00  .186264514923D-08  .700000000000D+02
     .295206000000D+06  .400000000000D+01
 4 15  9  2 12  0  0.0 -.163111835718D-04 -.386535248253D-11  .000000000000D+00
     .200000000000D+02 -.460312500000D+02  .534450833451D-08 -.153011484692D+01
    -.231340527534D-05  .117999811191D-01  .491365790367D-05  .515364915276D+04
     .302400000000D+06  .262632966042D-06  .257736814310D+01  .100582838058D-06
     .940668045868D+00  .272531250000D+03  .109295163270D+01 -.852214069565D-08
    -.341799951626D-09  .100000000000D+01  .186000000000D+04  .000000000000D+00
     .240000000000D+01  .000000000000D+00 -.651925802231D-08  .200000000000D+02
     .295206000000D+06  .400000000000D+01
 5 15  9  2 12  0  0.0 -.199859961867D-03  .409272615798D-11  .000000000000D+00
     .970000000000D+02 -.213750000000D+02  .453911764390D-08  .170901180434D+01
    -.970438122749D-06  .432856229600D-02  .126268714666D-04  .515364116669D+04
     .302400000000D+06 -.614672899246D-07 -.264922301162D+01 -.800937414169D-07
     .946786681717D+00  .131531250000D+03  .405131777308D+00 -.804497796277D-08
    -.344300055765D-09  .100000000000D+01  .186000000000D+04  .000000000000D+00
     .340000000000D+01  .000000000000D+00 -.107102096081D-07  .970000000000D+02
     .295206000000D+06  .400000000000D+01
 6 15  9  2 12  0  0.0  .501195900142D-04  .750333128963D-11  .000000000000D+00
     .121000000000D+03 -.431875000000D+02  .490913305653D-08  .838772381345D+00
    -.228919088840D-05  .127257895656D-03  .538676977158D-05  .515352801323D+04
     .302400000000D+06  .428408384323D-07  .259343629108D+01  .204890966415D-07
     .962801437573D+00  .276937500000D+03  .294826657089D+01 -.838713507213D-08
    -.298226708054D-09  .100000000000D+01  .186000000000D+04  .000000000000D+00
     .485000000000D+01  .000000000000D+00  .419095158577D-08  .121000000000D+03
     .295206000000D+06  .400000000000D+01
 7 15  9  2 12  0  0.0  .483016483486D-03  .181898940355D-11  .000000000000D+00
     .560000000000D+02 -.439062500000D+02  .474626912973D-08 -.196021369411D+01
    -.255368649960D-05  .891887233593D-02  .387243926525D-05  .515369541550D+04
     .302400000000D+06  .596046447754D-07 -.521439215442D+00 -.800937414169D-07
     .969303251165D+00  .308625000000D+03 -.271237799702D+01 -.838963517627D-08
    -.792890169915D-10  .100000000000D+01  .186000000000D+04  .000000000000D+00
     .240000000000D+01  .000000000000D+00 -.111758708954D-07  .560000000000D+02
     .295206000000D+06  .400000000000D+01
 8 15  9  2 12  0  0.0 -.385846942663D-05 -.136424205266D-11  .000000000000D+00
     .460000000000D+02  .501875000000D+02  .475984112363D-08  .233111234279D+01
     .252947211266D-05  .133963406552D-02  .782310962677D-05  .515356531143D+04
     .302400000000D+06  .745058059692D-08  .154365564446D+01  .372529029846D-08
     .960024817596D+00  .224343750000D+03 -.180122729459D+01 -.823998608564D-08
     .397516558160D-09  .100000000000D+01  .186000000000D+04  .000000000000D+00
     .240000000000D+01  .000000000000D+00  .745058059692D-08  .460000000000D+02
     .295206000000D+06  .400000000000D+01
 9 15  9  2 12  0  0.0 -.106594525278D-04  .795807864051D-12  .000000000000D+00
     .230000000000D+02  .110625000000D+03  .467769484477D-08 -.707688815223D-01
     .573135912418D-05  .395002891310D-03  .758096575737D-05  .515374412918D+04
     .302400000000D+06  .521540641785D-07 -.159868057674D+01 -.372529029846D-08
     .956389096050D+00  .227156250000D+03  .279776385860D+01 -.833641867387D-08
     .475019786481D-09  .100000000000D+01  .186000000000D+04  .000000000000D+00
     .240000000000D+01  .000000000000D+00  .931322574615D-09  .230000000000D+02
     .295206000000D+06  .400000000000D+01
11 15  9  2 12  0  0.0 -.601684674621D-03 -.238742359215D-11  .000000000000D+00
     .980000000000D+02 -.593750000000D+01  .645134015278D-08 -.190379240505D+01
    -.763684511185D-07  .162145000650D-01  .306032598019D-05  .515361829376D+04
     .302400000000D+06  .309199094772D-06  .224410307078D+01  .165775418282D-06
     .893958297523D+00  .282031250000D+03  .144690686660D+01 -.902894752048D-08
    -.210723063176D-10  .100000000000D+01  .186000000000D+04  .000000000000D+00
     .340000000000D+01  .000000000000D+00 -.121071934700D-07  .980000000000D+02
     .295206000000D+06  .400000000000D+01
12 15  9  2 12  0  0.0  .324424356222D-03  .341060513165D-11  .000000000000D+00
     .440000000000D+02 -.477812500000D+02  .379908681864D-08 -.246925538542D+01
    -.247731804848D-05  .551685492974D-02  .111442059278D-04  .515362181282D+04
     .302400000000D+06  .651925802231D-07  .548629189339D+00 -.150874257088D-06
     .990232794416D+00  .178656250000D+03  .646697528085D+00 -.764388982726D-08
    -.821462788651D-11  .100000000000D+01  .186000000000D+04  .000000000000D+00
     .240000000000D+01  .000000000000D+00 -.125728547573D-07  .440000000000D+02
     .295206000000D+06  .400000000000D+01
13 15  9  2 12  0  0.0 -.145940110087D-03 -.295585778076D-11  .000000000000D+00
     .460000000000D+02  .855312500000D+02  .441411243693D-08 -.114501858998D+01
     .443123281002D-05  .474630470853D-02  .688247382641D-05  .515368439484D+04
     .302400000000D+06 -.633299350739D-07 -.148199714379D+01 -.670552253723D-07
     .972987392373D+00  .256156250000D+03  .208899148629D+01 -.823034282681D-08
     .443947063606D-09  .100000000000D+01  .186000000000D+04  .000000000000D+00
     .240000000000D+01  .000000000000D+00 -.111758708954D-07  .460000000000D+02
     .295206000000D+06  .400000000000D+01
14 15  9  2 12  0  0.0  .375229865313D-04 -.261479726760D-11  .000000000000D+00
     .620000000000D+02  .871250000000D+02  .452304554586D-08  .798360831802D+00
     .444985926151D-05  .847455521580D-02  .668317079544D-05  .515364785385D+04
     .302400000000D+06 -.154599547386D-06 -.151728213977D+01  .111758708954D-07
     .965486610541D+00  .251218750000D+03 -.196197884228D+01 -.834249035535D-08
     .298941023522D-09  .100000000000D+01  .186000000000D+04  .000000000000D+00
     .240000000000D+01  .000000000000D+00 -.931322574615D-08  .620000000000D+02
     .295206000000D+06  .400000000000D+01
15 15  9  2 12  0  0.0 -.269403215498D-03 -.204636307899D-11  .000000000000D+00
     .128000000000D+03  .826250000000D+02  .525486174323D-08  .123061176461D+00
     .445917248726D-05  .735233747400D-02  .757165253162D-05  .515370571327D+04
     .302400000000D+06  .931322574615D-07 -.164471329977D+01  .540167093277D-07
     .932240647336D+00  .217125000000D+03  .399169896057D+00 -.862607359630D-08
     .378944355982D-09  .100000000000D+01  .186000000000D+04  .000000000000D+00
     .240000000000D+01  .000000000000D+00 -.107102096081D-07  .128000000000D+03
     .295206000000D+06  .400000000000D+01
16 15  9  2 12  0  0.0 -.908505171537D-04  .409272615798D-11  .000000000000D+00
     .940000000000D+02 -.358750000000D+02  .383230248792D-08  .180053217151D+01
    -.170245766640D-05  .809488783125D-02  .119935721159D-04  .515361852646D+04
     .302400000000D+06 -.726431608200D-07  .567325754915D+00  .212341547012D-06
     .990759073344D+00  .165437500000D+03  .322304771573D+00 -.770460664208D-08
    -.104290058385D-09  .100000000000D+01  .186000000000D+04  .000000000000D+00
     .240000000000D+01  .000000000000D+00 -.102445483208D-07  .940000000000D+02
     .295206000000D+06  .400000000000D+01
